{"type": "FeatureCollection", "features": [ {"type": "Feature", "properties": {"norad_id": 36206, "name": "FENGYUN 1C DEB", "group": "fengyun-1c-debris", "lat": 10.378257764957176, "lon": 0.6434329561393091, "alt_km": 802.4641672764064, "timestamp": "2025-12-04T17:48:40.454020+00:00", "meta": {"OBJECT_NAME": "FENGYUN 1C DEB", "OBJECT_ID": "1999-025DUF", "EPOCH": "2025-11-26T07:02:56.668416", "MEAN_MOTION": 14.21517518, "ECCENTRICITY": 0.00312218, "INCLINATION": 98.4807, "RA_OF_ASC_NODE": 354.0922, "ARG_OF_PERICENTER": 66.8272, "MEAN_ANOMALY": 293.619, "EPHEMERIS_TYPE": 0, "CLASSIFICATION_TYPE": "U", "NORAD_CAT_ID": 36206, "ELEMENT_SET_NO": 999, "REV_AT_EPOCH": 64187, "BSTAR": 0.00073137291, "MEAN_MOTION_DOT": 1.568e-05, "MEAN_MOTION_DDOT": 0}, "tle": {"line1": "1 36206U 99025DUF 25330.29371144  .00001568  00000+0  73137-3 0  9999", "line2": "2 36206  98.4807 354.0922 0031221  66.8272 293.6190 14.21517518641871"}}, "geometry": {"type": "Point", "coordinates": [0.6434329561393091, 10.378257764957176]}}, {"type": "Feature", "properties": {"norad_id": 36211, "name": "FENGYUN 1C DEB", "group": "fengyun-1c-debris", "lat": 25.773576863598276, "lon": -32.01262197064722, "alt_km": 934.1258665714395, "timestamp": "2025-12-04T17:48:40.454030+00:00", "meta": {"OBJECT_NAME": "FENGYUN 1C DEB", "OBJECT_ID": "1999-025DUL", "EPOCH": "2025-12-01T17:16:14.280672", "MEAN_MOTION": 14.25927251, "ECCENTRICITY": 0.02665414, "INCLINATION": 98.503, "RA_OF_ASC_NODE": 329.193, "ARG_OF_PERICENTER": 261.2872, "MEAN_ANOMALY": 95.8036, "EPHEMERIS_TYPE": 0, "CLASSIFICATION_TYPE": "U", "NORAD_CAT_ID": 36211, "ELEMENT_SET_NO": 999, "REV_AT_EPOCH": 94212, "BSTAR": 0.00059239052, "MEAN_MOTION_DOT": 1.999e-05, "MEAN_MOTION_DDOT": 0}, "tle": {"line1": "1 36211U 99025DUL 25335.71960973  .00001999  00000+0  59239-3 0  9996", "line2": "2 36211  98.5030 329.1930 0266541 261.2872  95.8036 14.25927251942126"}}, "geometry": {"type": "Point", "coordinates": [-32.01262197064722, 25.773576863598276]}}, {"type": "Feature", "properties": {"norad_id": 36216, "name": "FENGYUN 1C DEB", "group": "fengyun-1c-debris", "lat": -58.51470050626518, "lon": 164.86001072322838, "alt_km": 867.3771380407952, "timestamp": "2025-12-04T17:48:40.454040+00:00", "meta": {"OBJECT_NAME": "FENGYUN 1C DEB", "OBJECT_ID": "1999-025DUR", "EPOCH": "2025-12-03T18:41:03.384096", "MEAN_MOTION": 14.18834784, "ECCENTRICITY": 0.00454101, "INCLINATION": 98.6096, "RA_OF_ASC_NODE": 358.2465, "ARG_OF_PERICENTER": 43.693, "MEAN_ANOMALY": 316.7826, "EPHEMERIS_TYPE": 0, "CLASSIFICATION_TYPE": "U", "NORAD_CAT_ID": 36216, "ELEMENT_SET_NO": 999, "REV_AT_EPOCH": 64245, "BSTAR": 0.00043256372, "MEAN_MOTION_DOT": 8.67e-06, "MEAN_MOTION_DDOT": 0}, "tle": {"line1": "1 36216U 99025DUR 25337.77851139  .00000867  00000+0  43256-3 0  9997", "line2": "2 36216  98.6096 358.2465 0045410  43.6930 316.7826 14.18834784642452"}}, "geometry": {"type": "Point", "coordinates": [164.86001072322838, -58.51470050626518]}}, {"type": "Feature", "properties": {"norad_id": 36218, "name": "FENGYUN 1C DEB", "group": "fengyun-1c-debris", "lat": 80.10831468237278, "lon": 112.37285271136057, "alt_km": 680.9886514026539, "timestamp": "2025-12-04T17:48:40.454051+00:00", "meta": {"OBJECT_NAME": "FENGYUN 1C DEB", "OBJECT_ID": "1999-025DUT", "EPOCH": "2025-12-03T07:08:05.265024", "MEAN_MOTION": 14.70767132, "ECCENTRICITY": 0.0073471, "INCLINATION": 99.0773, "RA_OF_ASC_NODE": 177.2311, "ARG_OF_PERICENTER": 324.8759, "MEAN_ANOMALY": 34.7612, "EPHEMERIS_TYPE": 0, "CLASSIFICATION_TYPE": "U", "NORAD_CAT_ID": 36218, "ELEMENT_SET_NO": 999, "REV_AT_EPOCH": 59004, "BSTAR": 0.0015383, "MEAN_MOTION_DOT": 9.736e-05, "MEAN_MOTION_DDOT": 0}, "tle": {"line1": "1 36218U 99025DUT 25337.29728316  .00009736  00000+0  15383-2 0  9999", "line2": "2 36218  99.0773 177.2311 0073471 324.8759  34.7612 14.70767132590048"}}, "geometry": {"type": "Point", "coordinates": [112.37285271136057, 80.10831468237278]}}, {"type": "Feature", "properties": {"norad_id": 36224, "name": "FENGYUN 1C DEB", "group": "fengyun-1c-debris", "lat": -68.83710837020837, "lon": 49.767376409606214, "alt_km": 849.5522165537122, "timestamp": "2025-12-04T17:48:40.454061+00:00", "meta": {"OBJECT_NAME": "FENGYUN 1C DEB", "OBJECT_ID": "1999-025DUZ", "EPOCH": "2025-12-03T09:50:44.311776", "MEAN_MOTION": 14.12755501, "ECCENTRICITY": 0.01150636, "INCLINATION": 98.7814, "RA_OF_ASC_NODE": 24.9281, "ARG_OF_PERICENTER": 18.5411, "MEAN_ANOMALY": 341.9902, "EPHEMERIS_TYPE": 0, "CLASSIFICATION_TYPE": "U", "NORAD_CAT_ID": 36224, "ELEMENT_SET_NO": 999, "REV_AT_EPOCH": 64300, "BSTAR": 0.00017250979, "MEAN_MOTION_DOT": 2.98e-06, "MEAN_MOTION_DDOT": 0}, "tle": {"line1": "1 36224U 99025DUZ 25337.41023509  .00000298  00000+0  17251-3 0  9993", "line2": "2 36224  98.7814  24.9281 0115063  18.5411 341.9902 14.12755501643000"}}, "geometry": {"type": "Point", "coordinates": [49.767376409606214, -68.83710837020837]}}, {"type": "Feature", "properties": {"norad_id": 36225, "name": "FENGYUN 1C DEB", "group": "fengyun-1c-debris", "lat": -76.86966259705922, "lon": -122.71305790007382, "alt_km": 541.3369461181856, "timestamp": "2025-12-04T17:48:40.454071+00:00", "meta": {"OBJECT_NAME": "FENGYUN 1C DEB", "OBJECT_ID": "1999-025DVA", "EPOCH": "2025-11-30T13:43:01.365312", "MEAN_MOTION": 15.04722119, "ECCENTRICITY": 0.004439, "INCLINATION": 98.8175, "RA_OF_ASC_NODE": 94.2475, "ARG_OF_PERICENTER": 329.7202, "MEAN_ANOMALY": 30.1456, "EPHEMERIS_TYPE": 0, "CLASSIFICATION_TYPE": "U", "NORAD_CAT_ID": 36225, "ELEMENT_SET_NO": 999, "REV_AT_EPOCH": 66589, "BSTAR": 0.0026395, "MEAN_MOTION_DOT": 0.00038099, "MEAN_MOTION_DDOT": 0}, "tle": {"line1": "1 36225U 99025DVA 25334.57154358  .00038099  00000+0  26395-2 0  9993", "line2": "2 36225  98.8175  94.2475 0044390 329.7202  30.1456 15.04722119665899"}}, "geometry": {"type": "Point", "coordinates": [-122.71305790007382, -76.86966259705922]}}, {"type": "Feature", "properties": {"norad_id": 36229, "name": "FENGYUN 1C DEB", "group": "fengyun-1c-debris", "lat": 9.440793820026755, "lon": -164.9824739471084, "alt_km": 922.1263544046697, "timestamp": "2025-12-04T17:48:40.454081+00:00", "meta": {"OBJECT_NAME": "FENGYUN 1C DEB", "OBJECT_ID": "1999-025DVE", "EPOCH": "2025-12-02T19:41:20.876928", "MEAN_MOTION": 14.07108409, "ECCENTRICITY": 0.01024652, "INCLINATION": 100.9242, "RA_OF_ASC_NODE": 194.5403, "ARG_OF_PERICENTER": 148.9524, "MEAN_ANOMALY": 211.7748, "EPHEMERIS_TYPE": 0, "CLASSIFICATION_TYPE": "U", "NORAD_CAT_ID": 36229, "ELEMENT_SET_NO": 999, "REV_AT_EPOCH": 63116, "BSTAR": 0.0022107043, "MEAN_MOTION_DOT": 3.821e-05, "MEAN_MOTION_DDOT": 0}, "tle": {"line1": "1 36229U 99025DVE 25336.82038052  .00003821  00000+0  22107-2 0  9991", "line2": "2 36229 100.9242 194.5403 0102465 148.9524 211.7748 14.07108409631160"}}, "geometry": {"type": "Point", "coordinates": [-164.9824739471084, 9.440793820026755]}}, {"type": "Feature", "properties": {"norad_id": 36230, "name": "FENGYUN 1C DEB", "group": "fengyun-1c-debris", "lat": 67.85035839897697, "lon": 29.50115267769178, "alt_km": 978.3628986523954, "timestamp": "2025-12-04T17:48:40.454091+00:00", "meta": {"OBJECT_NAME": "FENGYUN 1C DEB", "OBJECT_ID": "1999-025DVF", "EPOCH": "2025-12-01T10:53:13.084224", "MEAN_MOTION": 13.75193497, "ECCENTRICITY": 0.02182616, "INCLINATION": 99.5257, "RA_OF_ASC_NODE": 50.5767, "ARG_OF_PERICENTER": 171.2335, "MEAN_ANOMALY": 189.2724, "EPHEMERIS_TYPE": 0, "CLASSIFICATION_TYPE": "U", "NORAD_CAT_ID": 36230, "ELEMENT_SET_NO": 999, "REV_AT_EPOCH": 61731, "BSTAR": 0.0022005072, "MEAN_MOTION_DOT": 2.463e-05, "MEAN_MOTION_DDOT": 0}, "tle": {"line1": "1 36230U 99025DVF 25335.45362366  .00002463  00000+0  22005-2 0  9997", "line2": "2 36230  99.5257  50.5767 0218261 171.2335 189.2724 13.75193497617315"}}, "geometry": {"type": "Point", "coordinates": [29.50115267769178, 67.85035839897697]}}, {"type": "Feature", "properties": {"norad_id": 36231, "name": "FENGYUN 1C DEB", "group": "fengyun-1c-debris", "lat": -5.040520299556299, "lon": -45.304405717329615, "alt_km": 811.9768979614382, "timestamp": "2025-12-04T17:48:40.454101+00:00", "meta": {"OBJECT_NAME": "FENGYUN 1C DEB", "OBJECT_ID": "1999-025DVG", "EPOCH": "2025-12-04T04:13:47.192160", "MEAN_MOTION": 14.11999697, "ECCENTRICITY": 0.00609893, "INCLINATION": 98.6874, "RA_OF_ASC_NODE": 313.3747, "ARG_OF_PERICENTER": 357.936, "MEAN_ANOMALY": 2.1552, "EPHEMERIS_TYPE": 0, "CLASSIFICATION_TYPE": "U", "NORAD_CAT_ID": 36231, "ELEMENT_SET_NO": 999, "REV_AT_EPOCH": 85422, "BSTAR": 0.00025502074, "MEAN_MOTION_DOT": 4.32e-06, "MEAN_MOTION_DDOT": 0}, "tle": {"line1": "1 36231U 99025DVG 25338.17624065  .00000432  00000+0  25502-3 0  9997", "line2": "2 36231  98.6874 313.3747 0060989 357.9360   2.1552 14.11999697854224"}}, "geometry": {"type": "Point", "coordinates": [-45.304405717329615, -5.040520299556299]}}, {"type": "Feature", "properties": {"norad_id": 36232, "name": "FENGYUN 1C DEB", "group": "fengyun-1c-debris", "lat": -48.79266399908352, "lon": 132.93793296809847, "alt_km": 944.1006280308384, "timestamp": "2025-12-04T17:48:40.454112+00:00", "meta": {"OBJECT_NAME": "FENGYUN 1C DEB", "OBJECT_ID": "1999-025DVH", "EPOCH": "2025-12-01T05:25:45.804576", "MEAN_MOTION": 14.12477693, "ECCENTRICITY": 0.0119523, "INCLINATION": 98.7033, "RA_OF_ASC_NODE": 319.5967, "ARG_OF_PERICENTER": 60.6412, "MEAN_ANOMALY": 300.6635, "EPHEMERIS_TYPE": 0, "CLASSIFICATION_TYPE": "U", "NORAD_CAT_ID": 36232, "ELEMENT_SET_NO": 999, "REV_AT_EPOCH": 61573, "BSTAR": 0.00038221, "MEAN_MOTION_DOT": 7.13e-06, "MEAN_MOTION_DDOT": 0}, "tle": {"line1": "1 36232U 99025DVH 25335.22622459  .00000713  00000+0  38221-3 0  9990", "line2": "2 36232  98.7033 319.5967 0119523  60.6412 300.6635 14.12477693615737"}}, "geometry": {"type": "Point", "coordinates": [132.93793296809847, -48.79266399908352]}}]}